start=new Date('2022-10-12T00:00:00.000Z').valueOf();
sats=[{"INCLINATION":"53.0554","TLE_LINE2":"2 45536  53.0554 296.3339 0001777  53.1835 306.9317 15.06385172137412","EPHEMERIS_TYPE":"0","COUNTRY_CODE":"US","PERIOD":"95.593","BSTAR":"-0.00005113300000","RA_OF_ASC_NODE":"296.3339","OBJECT_NAME":"STARLINK-1352","RCS_SIZE":"LARGE","EPOCH":"2022-10-11T12:51:23.227200","OBJECT_TYPE":"PAYLOAD","MEAN_ANOMALY":"306.9317","CLASSIFICATION_TYPE":"U","REF_FRAME":"TEME","CENTER_NAME":"EARTH","NORAD_CAT_ID":"45536","ELEMENT_SET_NO":"999","ARG_OF_PERICENTER":"53.1835","SITE":"AFETR","ECCENTRICITY":"0.00017770","OBJECT_ID":"2020-025F","MEAN_MOTION":"15.06385172","REV_AT_EPOCH":"13741","LAUNCH_DATE":"2020-04-22","APOAPSIS":"548.490","PERIAPSIS":"546.028","FILE":"3604484","TIME_SYSTEM":"UTC","MEAN_MOTION_DOT":"-0.00001043","DECAY_DATE":null,"TLE_LINE1":"1 45536U 20025F   22284.53568550 -.00001043  00000-0 -51133-4 0  9994","GP_ID":"214820258","SEMIMAJOR_AXIS":"6925.394","MEAN_ELEMENT_THEORY":"SGP4","MEAN_MOTION_DDOT":"0.0000000000000"},{"FILE":"3603543","LAUNCH_DATE":"2020-04-22","APOAPSIS":"475.572","PERIAPSIS":"467.990","MEAN_MOTION":"15.31351535","REV_AT_EPOCH":"13823","OBJECT_ID":"2020-025G","ECCENTRICITY":"0.00055340","SITE":"AFETR","MEAN_MOTION_DDOT":"0.0000000000000","MEAN_ELEMENT_THEORY":"SGP4","SEMIMAJOR_AXIS":"6849.916","TLE_LINE1":"1 45537U 20025G   22284.29458889  .00104159  00000-0  33564-2 0  9997","GP_ID":"214778536","DECAY_DATE":null,"MEAN_MOTION_DOT":"0.00104159","TIME_SYSTEM":"UTC","EPOCH":"2022-10-11T07:04:12.480096","RCS_SIZE":"LARGE","OBJECT_NAME":"STARLINK-1353","RA_OF_ASC_NODE":"233.9183","BSTAR":"0.00335640000000","PERIOD":"94.035","COUNTRY_CODE":"US","TLE_LINE2":"2 45537  52.9739 233.9183 0005534 104.1456 256.0158 15.31351535138234","EPHEMERIS_TYPE":"0","INCLINATION":"52.9739","ARG_OF_PERICENTER":"104.1456","ELEMENT_SET_NO":"999","NORAD_CAT_ID":"45537","CENTER_NAME":"EARTH","REF_FRAME":"TEME","CLASSIFICATION_TYPE":"U","MEAN_ANOMALY":"256.0158","OBJECT_TYPE":"PAYLOAD"},{"MEAN_MOTION":"15.06404875","OBJECT_ID":"2020-025H","REV_AT_EPOCH":"13739","ECCENTRICITY":"0.00017410","SITE":"AFETR","FILE":"3603543","APOAPSIS":"548.404","LAUNCH_DATE":"2020-04-22","PERIAPSIS":"545.993","MEAN_MOTION_DOT":"0.00002098","TIME_SYSTEM":"UTC","GP_ID":"214778786","TLE_LINE1":"1 45538U 20025H   22284.36243332  .00002098  00000-0  15968-3 0  9999","DECAY_DATE":null,"MEAN_ELEMENT_THEORY":"SGP4","SEMIMAJOR_AXIS":"6925.334","MEAN_MOTION_DDOT":"0.0000000000000","COUNTRY_CODE":"US","TLE_LINE2":"2 45538  53.0525 297.1161 0001741  56.6872 303.4283 15.06404875137397","EPHEMERIS_TYPE":"0","INCLINATION":"53.0525","OBJECT_NAME":"STARLINK-1362","RA_OF_ASC_NODE":"297.1161","BSTAR":"0.00015968000000","PERIOD":"95.592","EPOCH":"2022-10-11T08:41:54.238848","RCS_SIZE":"LARGE","OBJECT_TYPE":"PAYLOAD","MEAN_ANOMALY":"303.4283","CENTER_NAME":"EARTH","REF_FRAME":"TEME","CLASSIFICATION_TYPE":"U","ARG_OF_PERICENTER":"56.6872","ELEMENT_SET_NO":"999","NORAD_CAT_ID":"45538"},{"MEAN_MOTION_DOT":"-0.00003106","TIME_SYSTEM":"UTC","TLE_LINE1":"1 45540U 20025K   22284.53936743 -.00003106  00000-0 -18978-3 0  9993","GP_ID":"214819508","DECAY_DATE":null,"MEAN_ELEMENT_THEORY":"SGP4","SEMIMAJOR_AXIS":"6925.390","MEAN_MOTION_DDOT":"0.0000000000000","MEAN_MOTION":"15.06386421","OBJECT_ID":"2020-025K","REV_AT_EPOCH":"13741","ECCENTRICITY":"0.00018250","SITE":"AFETR","FILE":"3604484","LAUNCH_DATE":"2020-04-22","PERIAPSIS":"545.991","APOAPSIS":"548.519","OBJECT_TYPE":"PAYLOAD","MEAN_ANOMALY":"309.9116","CENTER_NAME":"EARTH","REF_FRAME":"TEME","CLASSIFICATION_TYPE":"U","ARG_OF_PERICENTER":"50.2034","ELEMENT_SET_NO":"999","NORAD_CAT_ID":"45540","COUNTRY_CODE":"US","TLE_LINE2":"2 45540  53.0534 296.3292 0001825  50.2034 309.9116 15.06386421137414","EPHEMERIS_TYPE":"0","INCLINATION":"53.0534","OBJECT_NAME":"STARLINK-1368","RA_OF_ASC_NODE":"296.3292","BSTAR":"-0.00018978000000","PERIOD":"95.593","EPOCH":"2022-10-11T12:56:41.345952","RCS_SIZE":"LARGE"},{"GP_ID":"214780286","TLE_LINE1":"1 45541U 20025L   22284.34401102  .00000317  00000-0  40199-4 0  9999","DECAY_DATE":null,"MEAN_MOTION_DOT":"0.00000317","TIME_SYSTEM":"UTC","MEAN_MOTION_DDOT":"0.0000000000000","MEAN_ELEMENT_THEORY":"SGP4","SEMIMAJOR_AXIS":"6925.373","FILE":"3603543","LAUNCH_DATE":"2020-04-22","APOAPSIS":"548.453","PERIAPSIS":"546.022","OBJECT_ID":"2020-025L","MEAN_MOTION":"15.06392140","REV_AT_EPOCH":"13738","ECCENTRICITY":"0.00017550","SITE":"AFETR","MEAN_ANOMALY":"300.4425","OBJECT_TYPE":"PAYLOAD","ARG_OF_PERICENTER":"59.6738","ELEMENT_SET_NO":"999","NORAD_CAT_ID":"45541","REF_FRAME":"TEME","CENTER_NAME":"EARTH","CLASSIFICATION_TYPE":"U","OBJECT_NAME":"STARLINK-1369","RA_OF_ASC_NODE":"297.1985","BSTAR":"0.00004019900000","PERIOD":"95.593","COUNTRY_CODE":"US","EPHEMERIS_TYPE":"0","TLE_LINE2":"2 45541  53.0559 297.1985 0001755  59.6738 300.4425 15.06392140137386","INCLINATION":"53.0559","EPOCH":"2022-10-11T08:15:22.552128","RCS_SIZE":"LARGE"},{"CLASSIFICATION_TYPE":"U","CENTER_NAME":"EARTH","REF_FRAME":"TEME","NORAD_CAT_ID":"45542","ELEMENT_SET_NO":"999","ARG_OF_PERICENTER":"49.1246","OBJECT_TYPE":"PAYLOAD","MEAN_ANOMALY":"310.9904","RCS_SIZE":"LARGE","EPOCH":"2022-10-11T10:38:41.409312","INCLINATION":"53.0542","EPHEMERIS_TYPE":"0","TLE_LINE2":"2 45542  53.0542 296.7604 0001858  49.1246 310.9904 15.06384899137407","COUNTRY_CODE":"US","PERIOD":"95.593","BSTAR":"-0.00004861600000","RA_OF_ASC_NODE":"296.7604","OBJECT_NAME":"STARLINK-1371","SEMIMAJOR_AXIS":"6925.395","MEAN_ELEMENT_THEORY":"SGP4","MEAN_MOTION_DDOT":"0.0000000000000","TIME_SYSTEM":"UTC","MEAN_MOTION_DOT":"-0.00001005","DECAY_DATE":null,"TLE_LINE1":"1 45542U 20025M   22284.44353483 -.00001005  00000-0 -48616-4 0  9998","GP_ID":"214779036","SITE":"AFETR","ECCENTRICITY":"0.00018580","MEAN_MOTION":"15.06384899","OBJECT_ID":"2020-025M","REV_AT_EPOCH":"13740","APOAPSIS":"548.547","LAUNCH_DATE":"2020-04-22","PERIAPSIS":"545.973","FILE":"3603543"},{"MEAN_MOTION_DDOT":"0.0000000000000","SEMIMAJOR_AXIS":"6925.380","MEAN_ELEMENT_THEORY":"SGP4","DECAY_DATE":null,"GP_ID":"214779286","TLE_LINE1":"1 45543U 20025N   22284.48039616  .00000479  00000-0  51105-4 0  9991","MEAN_MOTION_DOT":"0.00000479","TIME_SYSTEM":"UTC","PERIAPSIS":"545.983","LAUNCH_DATE":"2020-04-22","APOAPSIS":"548.506","FILE":"3603543","ECCENTRICITY":"0.00018210","SITE":"AFETR","OBJECT_ID":"2020-025N","MEAN_MOTION":"15.06389870","REV_AT_EPOCH":"13650","ELEMENT_SET_NO":"999","NORAD_CAT_ID":"45543","ARG_OF_PERICENTER":"51.4186","REF_FRAME":"TEME","CENTER_NAME":"EARTH","CLASSIFICATION_TYPE":"U","MEAN_ANOMALY":"308.6965","OBJECT_TYPE":"PAYLOAD","RCS_SIZE":"LARGE","EPOCH":"2022-10-11T11:31:46.228224","BSTAR":"0.00005110500000","PERIOD":"95.593","OBJECT_NAME":"STARLINK-1372","RA_OF_ASC_NODE":"296.5872","EPHEMERIS_TYPE":"0","TLE_LINE2":"2 45543  53.0547 296.5872 0001821  51.4186 308.6965 15.06389870136502","INCLINATION":"53.0547","COUNTRY_CODE":"US"},{"ECCENTRICITY":"0.00015870","SITE":"AFETR","OBJECT_ID":"2020-025P","MEAN_MOTION":"15.06395099","REV_AT_EPOCH":"13738","APOAPSIS":"548.328","LAUNCH_DATE":"2020-04-22","PERIAPSIS":"546.130","FILE":"3603543","SEMIMAJOR_AXIS":"6925.364","MEAN_ELEMENT_THEORY":"SGP4","MEAN_MOTION_DDOT":"0.0000000000000","TIME_SYSTEM":"UTC","MEAN_MOTION_DOT":"-0.00000015","DECAY_DATE":null,"GP_ID":"214780036","TLE_LINE1":"1 45544U 20025P   22284.29978000 -.00000015  00000-0  17918-4 0  9991","RCS_SIZE":"LARGE","EPOCH":"2022-10-11T07:11:40.992000","TLE_LINE2":"2 45544  53.0540 297.4006 0001587  60.0752 300.0394 15.06395099137388","EPHEMERIS_TYPE":"0","INCLINATION":"53.0540","COUNTRY_CODE":"US","BSTAR":"0.00001791800000","PERIOD":"95.592","OBJECT_NAME":"STARLINK-1373","RA_OF_ASC_NODE":"297.4006","REF_FRAME":"TEME","CENTER_NAME":"EARTH","CLASSIFICATION_TYPE":"U","ELEMENT_SET_NO":"999","NORAD_CAT_ID":"45544","ARG_OF_PERICENTER":"60.0752","OBJECT_TYPE":"PAYLOAD","MEAN_ANOMALY":"300.0394"},{"SITE":"AFETR","ECCENTRICITY":"0.00023000","OBJECT_ID":"2020-025Q","MEAN_MOTION":"15.06406852","REV_AT_EPOCH":"13738","PERIAPSIS":"545.600","LAUNCH_DATE":"2020-04-22","APOAPSIS":"548.785","FILE":"3603543","TIME_SYSTEM":"UTC","MEAN_MOTION_DOT":"0.00002527","DECAY_DATE":null,"TLE_LINE1":"1 45545U 20025Q   22284.45089433  .00002527  00000-0  18849-3 0  9995","GP_ID":"214779787","SEMIMAJOR_AXIS":"6925.328","MEAN_ELEMENT_THEORY":"SGP4","MEAN_MOTION_DDOT":"0.0000000000000","INCLINATION":"53.0551","EPHEMERIS_TYPE":"0","TLE_LINE2":"2 45545  53.0551 296.7175 0002300  36.2095 323.9050 15.06406852137382","COUNTRY_CODE":"US","PERIOD":"95.592","BSTAR":"0.00018849000000","RA_OF_ASC_NODE":"296.7175","OBJECT_NAME":"STARLINK-1374","RCS_SIZE":"LARGE","EPOCH":"2022-10-11T10:49:17.270112","OBJECT_TYPE":"PAYLOAD","MEAN_ANOMALY":"323.9050","CLASSIFICATION_TYPE":"U","REF_FRAME":"TEME","CENTER_NAME":"EARTH","NORAD_CAT_ID":"45545","ELEMENT_SET_NO":"999","ARG_OF_PERICENTER":"36.2095"},{"OBJECT_ID":"2020-025R","MEAN_MOTION":"15.06393203","REV_AT_EPOCH":"13740","ECCENTRICITY":"0.00016860","SITE":"AFETR","FILE":"3603543","LAUNCH_DATE":"2020-04-22","PERIAPSIS":"546.067","APOAPSIS":"548.402","MEAN_ELEMENT_THEORY":"SGP4","SEMIMAJOR_AXIS":"6925.369","MEAN_MOTION_DDOT":"0.0000000000000","MEAN_MOTION_DOT":"-0.00001387","TIME_SYSTEM":"UTC","GP_ID":"214778537","TLE_LINE1":"1 45546U 20025R   22284.46196172 -.00001387  00000-0 -74234-4 0  9992","DECAY_DATE":null,"EPOCH":"2022-10-11T11:05:13.492608","RCS_SIZE":"LARGE","COUNTRY_CODE":"US","TLE_LINE2":"2 45546  53.0535 296.6759 0001686  62.6571 297.4589 15.06393203137400","EPHEMERIS_TYPE":"0","INCLINATION":"53.0535","OBJECT_NAME":"STARLINK-1375","RA_OF_ASC_NODE":"296.6759","BSTAR":"-0.00007423400000","PERIOD":"95.593","REF_FRAME":"TEME","CENTER_NAME":"EARTH","CLASSIFICATION_TYPE":"U","ARG_OF_PERICENTER":"62.6571","ELEMENT_SET_NO":"999","NORAD_CAT_ID":"45546","OBJECT_TYPE":"PAYLOAD","MEAN_ANOMALY":"297.4589"}];
